[{"OBJECT_NAME":"STARLINK-4398","OBJECT_ID":"2022-099B","EPOCH":"2026-03-09T20:40:09.712992","MEAN_MOTION":15.01260408,"ECCENTRICITY":0.00018332,"INCLINATION":97.602,"RA_OF_ASC_NODE":190.3842,"ARG_OF_PERICENTER":80.6969,"MEAN_ANOMALY":279.4462,"EPHEMERIS_TYPE":0,"CLASSIFICATION_TYPE":"U","NORAD_CAT_ID":53466,"ELEMENT_SET_NO":999,"REV_AT_EPOCH":19600,"BSTAR":2.7798956e-5,"MEAN_MOTION_DOT":2.99e-6,"MEAN_MOTION_DDOT":0},{"OBJECT_NAME":"OBJECT C","OBJECT_ID":"2024-110C","EPOCH":"2026-03-09T23:43:55.665408","MEAN_MOTION":14.9795015,"ECCENTRICITY":0.00127752,"INCLINATION":97.5516,"RA_OF_ASC_NODE":147.5124,"ARG_OF_PERICENTER":117.9593,"MEAN_ANOMALY":242.2925,"EPHEMERIS_TYPE":0,"CLASSIFICATION_TYPE":"U","NORAD_CAT_ID":60014,"ELEMENT_SET_NO":999,"REV_AT_EPOCH":8695,"BSTAR":0.00013340044,"MEAN_MOTION_DOT":1.519e-5,"MEAN_MOTION_DDOT":0}]
